<?xml version="1.0" encoding="UTF-8"?>
<gpx version="1.1" creator="Kirandulas PWA" xmlns="http://www.topografix.com/GPX/1/1">
  <metadata><name>Apátkúti-völgy / Telgárthy-rét</name></metadata>
  <wpt lat="47.7689812" lon="18.9824698"><name>Telgárthy-rét</name></wpt>
  <wpt lat="47.7689812" lon="18.9824698"><name>Apátkúti-patak</name></wpt>
  <rte><name>Apátkúti-völgy / Telgárthy-rét mini pontok</name>
    <rtept lat="47.7689812" lon="18.9824698"><name>Telgárthy-rét</name></rtept>
    <rtept lat="47.7689812" lon="18.9824698"><name>Apátkúti-patak</name></rtept>
  </rte>
</gpx>
