<?xml version="1.0" encoding="UTF-8"?>
<gpx version="1.1" creator="Kirandulas PWA" xmlns="http://www.topografix.com/GPX/1/1">
  <metadata><name>Dera-szurdok</name></metadata>
  <wpt lat="47.6845258" lon="18.9172138"><name>Pilisszentkereszt / Szurdok</name></wpt>
  <wpt lat="47.6845258" lon="18.9172138"><name>Dera-szurdok</name></wpt>
  <rte><name>Dera-szurdok mini pontok</name>
    <rtept lat="47.6845258" lon="18.9172138"><name>Pilisszentkereszt / Szurdok</name></rtept>
    <rtept lat="47.6845258" lon="18.9172138"><name>Dera-szurdok</name></rtept>
  </rte>
</gpx>
