<?xml version="1.0" encoding="UTF-8"?>
<gpx version="1.1" creator="Kirandulas PWA" xmlns="http://www.topografix.com/GPX/1/1">
  <metadata><name>Gaja-szurdok</name></metadata>
  <wpt lat="47.3137650" lon="18.2172270"><name>Gaja-szurdok</name></wpt>
  <wpt lat="47.3137650" lon="18.2172270"><name>Gaja-patak / szurdok</name></wpt>
  <rte><name>Gaja-szurdok mini pontok</name>
    <rtept lat="47.3137650" lon="18.2172270"><name>Gaja-szurdok</name></rtept>
    <rtept lat="47.3137650" lon="18.2172270"><name>Gaja-patak / szurdok</name></rtept>
  </rte>
</gpx>
