<?xml version="1.0" encoding="UTF-8"?>
<gpx version="1.1" creator="Kirandulas PWA" xmlns="http://www.topografix.com/GPX/1/1">
  <metadata><name>Holdvilág-árok</name></metadata>
  <wpt lat="47.6742901" lon="18.9711903"><name>Holdvilág-árok</name></wpt>
  <wpt lat="47.6742901" lon="18.9711903"><name>Holdvilág-árok</name></wpt>
  <rte><name>Holdvilág-árok mini pontok</name>
    <rtept lat="47.6742901" lon="18.9711903"><name>Holdvilág-árok</name></rtept>
    <rtept lat="47.6742901" lon="18.9711903"><name>Holdvilág-árok</name></rtept>
  </rte>
</gpx>
