<?xml version="1.0" encoding="UTF-8"?>
<gpx version="1.1" creator="Kirandulas PWA" xmlns="http://www.topografix.com/GPX/1/1">
  <metadata><name>Jegenye-völgy / Paprikás-patak</name></metadata>
  <wpt lat="47.5765899" lon="18.9379942"><name>Rózsika utca parkoló</name></wpt>
  <wpt lat="47.5798486" lon="18.9398565"><name>Jegenye-völgyi vízesés</name></wpt>
  <rte><name>Jegenye-völgy / Paprikás-patak mini pontok</name>
    <rtept lat="47.5765899" lon="18.9379942"><name>Rózsika utca parkoló</name></rtept>
    <rtept lat="47.5798486" lon="18.9398565"><name>Jegenye-völgyi vízesés</name></rtept>
  </rte>
</gpx>
