<?xml version="1.0" encoding="UTF-8"?>
<gpx version="1.1" creator="Kirandulas PWA" xmlns="http://www.topografix.com/GPX/1/1">
  <metadata><name>Királyrét / Julianna-barlang / Szén-patak</name></metadata>
  <wpt lat="47.9025031" lon="18.9825362"><name>Julianna-barlang</name></wpt>
  <wpt lat="47.9025031" lon="18.9825362"><name>Szén-patak környéke</name></wpt>
  <rte><name>Királyrét / Julianna-barlang / Szén-patak mini pontok</name>
    <rtept lat="47.9025031" lon="18.9825362"><name>Julianna-barlang</name></rtept>
    <rtept lat="47.9025031" lon="18.9825362"><name>Szén-patak környéke</name></rtept>
  </rte>
</gpx>
