<?xml version="1.0" encoding="UTF-8"?>
<gpx version="1.1" creator="Kirandulas PWA" xmlns="http://www.topografix.com/GPX/1/1">
  <metadata><name>Remete-szurdok</name></metadata>
  <wpt lat="47.5593457" lon="18.9368346"><name>Remete-szurdok</name></wpt>
  <wpt lat="47.5593457" lon="18.9368346"><name>Remete-szurdok</name></wpt>
  <rte><name>Remete-szurdok mini pontok</name>
    <rtept lat="47.5593457" lon="18.9368346"><name>Remete-szurdok</name></rtept>
    <rtept lat="47.5593457" lon="18.9368346"><name>Remete-szurdok</name></rtept>
  </rte>
</gpx>
