<?xml version="1.0" encoding="UTF-8"?>
<gpx version="1.1" creator="Kirandulas PWA" xmlns="http://www.topografix.com/GPX/1/1">
  <metadata><name>Tata / Fényes tanösvény</name></metadata>
  <wpt lat="47.6669022" lon="18.3068212"><name>Fényes tanösvény</name></wpt>
  <wpt lat="47.6669022" lon="18.3068212"><name>Fényes tanösvény</name></wpt>
  <rte><name>Tata / Fényes tanösvény mini pontok</name>
    <rtept lat="47.6669022" lon="18.3068212"><name>Fényes tanösvény</name></rtept>
    <rtept lat="47.6669022" lon="18.3068212"><name>Fényes tanösvény</name></rtept>
  </rte>
</gpx>
